{
  "norad_id": 59900,
  "name": "STARLINK-31676",
  "history": [
    {
      "epoch": "2026-03-28T12:08:45.057984",
      "apogee_km": 483.83774547495614,
      "perigee_km": 482.2747656513402,
      "latitude_deg": 24.51534961513814,
      "longitude_deg": -141.41660223994404,
      "semi_major_axis_km": 6861.193255563148,
      "eccentricity": 0.0001139,
      "inclination_deg": 43.0063,
      "raan_deg": 19.2134,
      "arg_perigee_deg": 273.0845,
      "mean_anomaly_deg": 86.9877,
      "mean_motion_rev_day": 15.27577609
    },
    {
      "epoch": "2026-03-29T02:16:09.121728",
      "apogee_km": 483.90723366923885,
      "perigee_km": 482.17410019057206,
      "latitude_deg": -24.187679584051075,
      "longitude_deg": -84.923198080156,
      "semi_major_axis_km": 6861.177666929905,
      "eccentricity": 0.0001263,
      "inclination_deg": 43.0042,
      "raan_deg": 15.8929,
      "arg_perigee_deg": 275.9936,
      "mean_anomaly_deg": 84.0772,
      "mean_motion_rev_day": 15.27582815
    }
  ]
}